{
    "links": {
        "self": "http://www.neowsapp.com/rest/v1/neo/3738969?api_key=iIulBulltgU6a56xZRHN4H3l9WmuAYTsLGpBGhQ2"
    },
    "id": "3738969",
    "neo_reference_id": "3738969",
    "name": "(2015 YD2)",
    "designation": "2015 YD2",
    "nasa_jpl_url": "http://ssd.jpl.nasa.gov/sbdb.cgi?sstr=3738969",
    "absolute_magnitude_h": 22.7,
    "estimated_diameter": {
        "kilometers": {
            "estimated_diameter_min": 0.0766575574,
            "estimated_diameter_max": 0.1714115092
        },
        "meters": {
            "estimated_diameter_min": 76.6575573531,
            "estimated_diameter_max": 171.4115092306
        },
        "miles": {
            "estimated_diameter_min": 0.0476327831,
            "estimated_diameter_max": 0.1065101409
        },
        "feet": {
            "estimated_diameter_min": 251.5011804664,
            "estimated_diameter_max": 562.3737359442
        }
    },
    "is_potentially_hazardous_asteroid": false,
    "close_approach_data": [
        {
            "close_approach_date": "2015-12-31",
            "close_approach_date_full": "2015-Dec-31 13:58",
            "epoch_date_close_approach": 1451570280000,
            "relative_velocity": {
                "kilometers_per_second": "12.192858253",
                "kilometers_per_hour": "43894.2897107521",
                "miles_per_hour": "27274.2046261059"
            },
            "miss_distance": {
                "astronomical": "0.0562081677",
                "lunar": "21.8649772353",
                "kilometers": "8408622.164522799",
                "miles": "5224875.5323366662"
            },
            "orbiting_body": "Earth"
        },
        {
            "close_approach_date": "2081-01-01",
            "close_approach_date_full": "2081-Jan-01 06:48",
            "epoch_date_close_approach": 3502939680000,
            "relative_velocity": {
                "kilometers_per_second": "11.851360643",
                "kilometers_per_hour": "42664.8983149483",
                "miles_per_hour": "26510.3086224189"
            },
            "miss_distance": {
                "astronomical": "0.0722951",
                "lunar": "28.1227939",
                "kilometers": "10815192.971437",
                "miles": "6720249.2903506"
            },
            "orbiting_body": "Earth"
        }
    ],
    "orbital_data": {
        "orbit_id": "12",
        "orbit_determination_date": "2017-04-06 08:29:38",
        "first_observation_date": "2015-12-19",
        "last_observation_date": "2016-01-04",
        "data_arc_in_days": 16,
        "observations_used": 108,
        "orbit_uncertainty": "8",
        "minimum_orbit_intersection": ".0152999",
        "jupiter_tisserand_invariant": "4.499",
        "epoch_osculation": "2457378.5",
        "eccentricity": ".4261641241256703",
        "semi_major_axis": "1.45535870077601",
        "inclination": "15.20821636823579",
        "ascending_node_longitude": "272.8070865997056",
        "orbital_period": "641.2885662745997",
        "perihelion_distance": ".8351370347711282",
        "perihelion_argument": "244.735184257788",
        "aphelion_distance": "2.075580366780892",
        "perihelion_time": "2457432.736115892889",
        "mean_anomaly": "329.5534853601624",
        "mean_motion": ".5613697466825691",
        "equinox": "J2000",
        "orbit_class": {
            "orbit_class_type": "APO",
            "orbit_class_description": "Near-Earth asteroid orbits which cross the Earth’s orbit similar to that of 1862 Apollo",
            "orbit_class_range": "a (semi-major axis) > 1.0 AU; q (perihelion) < 1.017 AU"
        }
    },
    "is_sentry_object": false
}